GLOBALSTAR M001         
1 25162U 98008A   25365.48568047 -.00000082  00000+0  10991-3 0  9997
2 25162  52.0026 118.9629 0000588 340.6838  99.0977 12.38224782268154
GLOBALSTAR M004         
1 25163U 98008B   25365.87890170 -.00000074  00000+0  16462-3 0  9996
2 25163  51.9979 171.0346 0003430  28.5955 136.6314 12.63411773286673
GLOBALSTAR M002         
1 25164U 98008C   25365.58052099 -.00000088  00000+0 -22538-3 0  9992
2 25164  52.0013 105.2704 0002292 137.7158 222.3839 11.61514487207003
GLOBALSTAR M003         
1 25165U 98008D   26001.12558219 -.00000192  00000+0 -10914-2 0  9996
2 25165  51.9923 340.2881 0008165 334.0104 107.0234 12.12038599257226
GLOBALSTAR M014         
1 25306U 98023A   25365.49189360 -.00000063  00000+0  27771-3 0  9995
2 25306  51.9865  24.5677 0000795   8.8392 160.0155 11.65483739214174
GLOBALSTAR M006         
1 25307U 98023B   26001.18972318 -.00000109  00000+0 -67879-3 0  9998
2 25307  51.9951  82.6770 0003742 113.0003 267.9500 11.58177697239772
GLOBALSTAR M015         
1 25308U 98023C   25365.92119139 -.00000035  00000+0  89010-3 0  9995
2 25308  51.9786 190.8820 0013760  69.9311  79.1082 11.48863359216802
GLOBALSTAR M008         
1 25309U 98023D   26001.11181194 -.00000078  00000+0  14264-3 0  9991
2 25309  51.9994 344.2151 0002371 232.3450 215.1326 12.36077621262320
